{
  "type": "FeatureCollection",
  "features": [
    {
      "type": "Feature",
      "properties": {
        "norad_id": 66415,
        "name": "HULIANWANG DIGUI 13D",
        "group": "last-30-days",
        "lat": -21.657571139078453,
        "lon": -103.42178143081817,
        "alt_km": 821.0881742574766,
        "timestamp": "2025-12-09T09:46:46.420638+00:00",
        "meta_object_name": "HULIANWANG DIGUI 13D",
        "meta_object_id": "2025-258D",
        "meta_epoch": "2025-12-08T18:43:14.477088",
        "meta_mean_motion": 14.20669566,
        "meta_eccentricity": 0.00073015,
        "meta_inclination": 50.0039,
        "meta_ra_of_asc_node": 278.6799,
        "meta_arg_of_pericenter": 351.1938,
        "meta_mean_anomaly": 8.8844,
        "meta_ephemeris_type": 0,
        "meta_classification_type": "U",
        "meta_norad_cat_id": 66415,
        "meta_element_set_no": 999,
        "meta_rev_at_epoch": 409,
        "meta_bstar": 0.00031109029,
        "meta_mean_motion_dot": 5.16e-06,
        "meta_mean_motion_ddot": 0,
        "tle_line1": "1 66415U 25258D   25342.78002867  .00000516  00000+0  31109-3 0  9996",
        "tle_line2": "2 66415  50.0039 278.6799 0007301 351.1938   8.8844 14.20669566  4090"
      },
      "geometry": {
        "type": "Point",
        "coordinates": [
          -103.42178143081817,
          -21.657571139078453
        ]
      }
    },
    {
      "type": "Feature",
      "properties": {
        "norad_id": 66416,
        "name": "HULIANWANG DIGUI 13E",
        "group": "last-30-days",
        "lat": -41.376375878216756,
        "lon": -131.57183725136548,
        "alt_km": 828.1332602936554,
        "timestamp": "2025-12-09T09:46:46.420665+00:00",
        "meta_object_name": "HULIANWANG DIGUI 13E",
        "meta_object_id": "2025-258E",
        "meta_epoch": "2025-12-08T20:32:41.838720",
        "meta_mean_motion": 14.19737012,
        "meta_eccentricity": 0.00054325,
        "meta_inclination": 50.0065,
        "meta_ra_of_asc_node": 278.4193,
        "meta_arg_of_pericenter": 353.4979,
        "meta_mean_anomaly": 6.5861,
        "meta_ephemeris_type": 0,
        "meta_classification_type": "U",
        "meta_norad_cat_id": 66416,
        "meta_element_set_no": 999,
        "meta_rev_at_epoch": 410,
        "meta_bstar": 0.00052022301,
        "meta_mean_motion_dot": 9.5e-06,
        "meta_mean_motion_ddot": 0,
        "tle_line1": "1 66416U 25258E   25342.85603980  .00000950  00000+0  52022-3 0  9997",
        "tle_line2": "2 66416  50.0065 278.4193 0005432 353.4979   6.5861 14.19737012  4105"
      },
      "geometry": {
        "type": "Point",
        "coordinates": [
          -131.57183725136548,
          -41.376375878216756
        ]
      }
    },
    {
      "type": "Feature",
      "properties": {
        "norad_id": 66417,
        "name": "HULIANWANG DIGUI 13F",
        "group": "last-30-days",
        "lat": -35.87037982502766,
        "lon": -121.31067244724707,
        "alt_km": 826.99472241281,
        "timestamp": "2025-12-09T09:46:46.420676+00:00",
        "meta_object_name": "HULIANWANG DIGUI 13F",
        "meta_object_id": "2025-258F",
        "meta_epoch": "2025-12-08T20:30:02.663136",
        "meta_mean_motion": 14.19898124,
        "meta_eccentricity": 0.00049712,
        "meta_inclination": 50.0014,
        "meta_ra_of_asc_node": 278.3846,
        "meta_arg_of_pericenter": 352.5523,
        "meta_mean_anomaly": 7.5313,
        "meta_ephemeris_type": 0,
        "meta_classification_type": "U",
        "meta_norad_cat_id": 66417,
        "meta_element_set_no": 999,
        "meta_rev_at_epoch": 410,
        "meta_bstar": 0.0004539907,
        "meta_mean_motion_dot": 8.12e-06,
        "meta_mean_motion_ddot": 0,
        "tle_line1": "1 66417U 25258F   25342.85419749  .00000812  00000+0  45399-3 0  9992",
        "tle_line2": "2 66417  50.0014 278.3846 0004971 352.5523   7.5313 14.19898124  4101"
      },
      "geometry": {
        "type": "Point",
        "coordinates": [
          -121.31067244724707,
          -35.87037982502766
        ]
      }
    },
    {
      "type": "Feature",
      "properties": {
        "norad_id": 66418,
        "name": "HULIANWANG DIGUI 13G",
        "group": "last-30-days",
        "lat": -15.586001779745583,
        "lon": -97.52519267444555,
        "alt_km": 821.9674353598002,
        "timestamp": "2025-12-09T09:46:46.420687+00:00",
        "meta_object_name": "HULIANWANG DIGUI 13G",
        "meta_object_id": "2025-258G",
        "meta_epoch": "2025-12-08T20:22:07.229856",
        "meta_mean_motion": 14.20510798,
        "meta_eccentricity": 0.00055793,
        "meta_inclination": 50.0031,
        "meta_ra_of_asc_node": 278.3586,
        "meta_arg_of_pericenter": 346.1381,
        "meta_mean_anomaly": 13.9377,
        "meta_ephemeris_type": 0,
        "meta_classification_type": "U",
        "meta_norad_cat_id": 66418,
        "meta_element_set_no": 999,
        "meta_rev_at_epoch": 410,
        "meta_bstar": 0.00039264944,
        "meta_mean_motion_dot": 6.91e-06,
        "meta_mean_motion_ddot": 0,
        "tle_line1": "1 66418U 25258G   25342.84869479  .00000691  00000+0  39265-3 0  9991",
        "tle_line2": "2 66418  50.0031 278.3586 0005579 346.1381  13.9377 14.20510798  4109"
      },
      "geometry": {
        "type": "Point",
        "coordinates": [
          -97.52519267444555,
          -15.586001779745583
        ]
      }
    },
    {
      "type": "Feature",
      "properties": {
        "norad_id": 66419,
        "name": "HULIANWANG DIGUI 13H",
        "group": "last-30-days",
        "lat": 21.505792671425063,
        "lon": 139.44590588264438,
        "alt_km": 444.3482806728598,
        "timestamp": "2025-12-09T09:46:46.420698+00:00",
        "meta_object_name": "HULIANWANG DIGUI 13H",
        "meta_object_id": "2025-258H",
        "meta_epoch": "2025-12-08T14:58:00.814656",
        "meta_mean_motion": 15.39596954,
        "meta_eccentricity": 0.00012505,
        "meta_inclination": 53.1596,
        "meta_ra_of_asc_node": 125.9585,
        "meta_arg_of_pericenter": 98.9072,
        "meta_mean_anomaly": 261.2074,
        "meta_ephemeris_type": 0,
        "meta_classification_type": "U",
        "meta_norad_cat_id": 66419,
        "meta_element_set_no": 999,
        "meta_rev_at_epoch": 804,
        "meta_bstar": 0.0024249346,
        "meta_mean_motion_dot": 0.00097774,
        "meta_mean_motion_ddot": 0,
        "tle_line1": "1 66419U 25258H   25342.62362054  .00097774  00000+0  24249-2 0  9998",
        "tle_line2": "2 66419  53.1596 125.9585 0001250  98.9072 261.2074 15.39596954  8045"
      },
      "geometry": {
        "type": "Point",
        "coordinates": [
          139.44590588264438,
          21.505792671425063
        ]
      }
    },
    {
      "type": "Feature",
      "properties": {
        "norad_id": 66420,
        "name": "HULIANWANG DIGUI 13J",
        "group": "last-30-days",
        "lat": -1.6049641595740654,
        "lon": -85.35803160838455,
        "alt_km": 820.6608909747129,
        "timestamp": "2025-12-09T09:46:46.420709+00:00",
        "meta_object_name": "HULIANWANG DIGUI 13J",
        "meta_object_id": "2025-258J",
        "meta_epoch": "2025-12-08T20:17:06.442944",
        "meta_mean_motion": 14.20810839,
        "meta_eccentricity": 0.00037732,
        "meta_inclination": 50.0024,
        "meta_ra_of_asc_node": 278.346,
        "meta_arg_of_pericenter": 347.1433,
        "meta_mean_anomaly": 12.9382,
        "meta_ephemeris_type": 0,
        "meta_classification_type": "U",
        "meta_norad_cat_id": 66420,
        "meta_element_set_no": 999,
        "meta_rev_at_epoch": 409,
        "meta_bstar": 0.00037258505,
        "meta_mean_motion_dot": 6.52e-06,
        "meta_mean_motion_ddot": 0,
        "tle_line1": "1 66420U 25258J   25342.84521346  .00000652  00000+0  37259-3 0  9990",
        "tle_line2": "2 66420  50.0024 278.3460 0003773 347.1433  12.9382 14.20810839  4090"
      },
      "geometry": {
        "type": "Point",
        "coordinates": [
          -85.35803160838455,
          -1.6049641595740654
        ]
      }
    },
    {
      "type": "Feature",
      "properties": {
        "norad_id": 66421,
        "name": "CZ-12 R/B",
        "group": "last-30-days",
        "lat": 45.10666817255773,
        "lon": -30.143862829693973,
        "alt_km": 789.776713582326,
        "timestamp": "2025-12-09T09:46:46.420719+00:00",
        "meta_object_name": "CZ-12 R/B",
        "meta_object_id": "2025-258K",
        "meta_epoch": "2025-12-08T23:29:12.386112",
        "meta_mean_motion": 14.42321761,
        "meta_eccentricity": 0.00645329,
        "meta_inclination": 49.9954,
        "meta_ra_of_asc_node": 274.2686,
        "meta_arg_of_pericenter": 235.8807,
        "meta_mean_anomaly": 123.5981,
        "meta_ephemeris_type": 0,
        "meta_classification_type": "U",
        "meta_norad_cat_id": 66421,
        "meta_element_set_no": 999,
        "meta_rev_at_epoch": 418,
        "meta_bstar": 0.0001280808,
        "meta_mean_motion_dot": 2.66e-06,
        "meta_mean_motion_ddot": 0,
        "tle_line1": "1 66421U 25258K   25342.97861558  .00000266  00000+0  12808-3 0  9991",
        "tle_line2": "2 66421  49.9954 274.2686 0064532 235.8807 123.5981 14.42321761  4182"
      },
      "geometry": {
        "type": "Point",
        "coordinates": [
          -30.143862829693973,
          45.10666817255773
        ]
      }
    }
  ]
}